SL-16 R/B               
1 22803U 93059B   26077.51130467  .00000242  00000+0  14354-3 0  9997
2 22803  70.9931 352.5247 0018017 203.6618 156.3679 14.17233072680783
ARIANE 40 R/B           
1 22830U 93061H   26077.42737367  .00000203  00000+0  90253-4 0  9992
2 22830  98.4900 146.1419 0009603 256.1559 103.8557 14.32865565695356
COSMOS 2278             
1 23087U 94023A   26077.57960393 -.00000154  00000+0 -55587-4 0  9997
2 23087  71.0543 156.5005 0008658 357.7867   2.3216 14.14378986646061
SL-16 R/B               
1 23088U 94023B   26077.62209148 -.00000027  00000+0  10775-4 0  9996
2 23088  70.9992  52.1263 0005534 276.9055  83.1438 14.15010041647358
SL-16 R/B               
1 23343U 94074B   26077.53722831  .00000434  00000+0  64708-4 0  9991
2 23343  97.7097 107.9964 0006472 179.7331 341.5200 14.79418188688550
SL-16 R/B               
1 23405U 94077B   26077.45890923  .00000317  00000+0  18632-3 0  9996
2 23405  70.9850 334.0419 0002581 201.5319 158.5696 14.15564962617474
ARIANE 40+ R/B          
1 23561U 95021B   26077.66057209  .00000260  00000+0  96713-4 0  9998
2 23561  98.4480 149.0210 0007918 113.0525  40.4754 14.39778808620536
SL-16 R/B               
1 23705U 95058B   26077.46631578  .00000098  00000+0  74597-4 0  9998
2 23705  71.0222 161.8300 0010382 109.7791 250.4453 14.15500409569091
SL-16 R/B               
1 24298U 96051B   26077.45207838  .00000090  00000+0  75166-4 0  9992
2 24298  70.7599 156.6936 0014336 134.3583 225.8714 14.12417967522880
ORBVIEW 2 (SEASTAR)     
1 24883U 97037A   26077.40943480  .00000246  00000+0  10186-3 0  9995
2 24883  98.8582 241.9528 0002840  53.7195 306.4252 14.35501143509724
SL-16 R/B               
1 25400U 98043G   26077.43184434  .00000054  00000+0  41474-4 0  9990
2 25400  98.8269  30.8579 0009760 355.6941   4.4153 14.26051804440233
SL-16 R/B               
1 25407U 98045B   26077.47293494  .00000152  00000+0  10103-3 0  9993
2 25407  71.0120 163.1046 0007342 354.2052   5.8985 14.16194741428343
ISS (ZARYA)             
1 25544U 98067A   26077.35508505  .00007746  00000+0  15190-3 0  9995
2 25544  51.6340  29.5200 0006240 204.1942 155.8754 15.48355497557679
CZ-4B R/B               
1 25732U 99025C   26077.57467984  .00000040  00000+0  40102-4 0  9990
2 25732  98.6607 121.6451 0036311 320.6960 203.2121 14.18267128389424
OKEAN-O                 
1 25860U 99039A   26077.57425381  .00000622  00000+0  88399-4 0  9998
2 25860  97.9422 137.3747 0001018  75.0124 285.1201 14.80349812435705
DELTA 2 R/B             
1 25876U 99041E   26077.50312749  .00000690  00000+0  15028-3 0  9997
2 25876  51.7610 266.0749 0502579  14.4288 347.0412 14.11862228364277
